stk.v.11.0

BEGIN Ephemeris

NumberOfEphemerisPoints 954

ScenarioEpoch            01 Jan 1970 00:00:00.0

CentralBody      Earth

CoordinateSystem        J2000

DistanceUnit      Feet

EphemerisLLATimePos

1.445537550000000e+09 3.822888888890000e+01 -7.630694444440000e+01 4.211000000000000e+03 
1.445537560000000e+09 3.822361111110000e+01 -7.630916666669999e+01 3.971000000000000e+03 
1.445537570000000e+09 3.821861111110000e+01 -7.631138888890000e+01 3.722000000000000e+03 
1.445537580000000e+09 3.821305555560000e+01 -7.631166666670001e+01 3.469000000000000e+03 
1.445537590000000e+09 3.820722222220000e+01 -7.631055555560000e+01 3.231000000000000e+03 
1.445537600000000e+09 3.820138888890000e+01 -7.631000000000000e+01 3.158000000000000e+03 
1.445537610000000e+09 3.819555555560000e+01 -7.630916666669999e+01 3.111000000000000e+03 
1.445537620000000e+09 3.818972222220000e+01 -7.630805555560001e+01 3.098000000000000e+03 
1.445537630000000e+09 3.818388888890000e+01 -7.630722222220000e+01 3.089000000000000e+03 
1.445537640000000e+09 3.817805555560000e+01 -7.630638888890000e+01 3.078000000000000e+03 
1.445537650000000e+09 3.817222222220000e+01 -7.630583333330000e+01 3.081000000000000e+03 
1.445537660000000e+09 3.816638888890000e+01 -7.630500000000001e+01 3.073000000000000e+03 
1.445537670000000e+09 3.816055555560000e+01 -7.630416666670000e+01 3.073000000000000e+03 
1.445537680000000e+09 3.815472222220000e+01 -7.630333333330000e+01 3.078000000000000e+03 
1.445537690000000e+09 3.814888888890000e+01 -7.630222222220000e+01 3.078000000000000e+03 
1.445537700000000e+09 3.814305555560000e+01 -7.630083333330001e+01 3.078000000000000e+03 
1.445537710000000e+09 3.813722222220000e+01 -7.629944444440000e+01 3.078000000000000e+03 
1.445537720000000e+09 3.813138888890000e+01 -7.629805555560000e+01 3.078000000000000e+03 
1.445537730000000e+09 3.812555555560000e+01 -7.629666666670001e+01 3.076000000000000e+03 
1.445537740000000e+09 3.811972222220000e+01 -7.629527777780000e+01 3.086000000000000e+03 
1.445537750000000e+09 3.811388888890000e+01 -7.629388888890000e+01 3.086000000000000e+03 
1.445537760000000e+09 3.810805555560000e+01 -7.629250000000000e+01 3.084000000000000e+03 
1.445537770000000e+09 3.810222222220000e+01 -7.629111111109999e+01 3.084000000000000e+03 
1.445537780000000e+09 3.809611111110000e+01 -7.628972222220000e+01 3.081000000000000e+03 
1.445537790000000e+09 3.809027777780000e+01 -7.628861111110000e+01 3.086000000000000e+03 
1.445537800000000e+09 3.808444444440000e+01 -7.628666666670000e+01 3.089000000000000e+03 
1.445537810000000e+09 3.807944444440000e+01 -7.628250000000000e+01 3.092000000000000e+03 
1.445537820000000e+09 3.807472222220000e+01 -7.627722222220000e+01 3.092000000000000e+03 
1.445537830000000e+09 3.807000000000000e+01 -7.627222222220000e+01 3.095000000000000e+03 
1.445537840000000e+09 3.806527777780000e+01 -7.626722222220000e+01 3.095000000000000e+03 
1.445537850000000e+09 3.806055555560000e+01 -7.626222222219999e+01 3.100000000000000e+03 
1.445537860000000e+09 3.805583333330000e+01 -7.625722222220000e+01 3.084000000000000e+03 
1.445537870000000e+09 3.805111111110000e+01 -7.625194444440000e+01 3.089000000000000e+03 
1.445537880000000e+09 3.804638888890000e+01 -7.624694444440000e+01 3.100000000000000e+03 
1.445537890000000e+09 3.804305555560000e+01 -7.623999999999999e+01 3.092000000000000e+03 
1.445537900000000e+09 3.804194444440000e+01 -7.623194444440000e+01 3.092000000000000e+03 
1.445537910000000e+09 3.804305555560000e+01 -7.622416666670000e+01 3.100000000000000e+03 
1.445537920000000e+09 3.804638888890000e+01 -7.621722222219999e+01 3.084000000000000e+03 
1.445537930000000e+09 3.805111111110000e+01 -7.621194444440000e+01 3.095000000000000e+03 
1.445537940000000e+09 3.805638888890000e+01 -7.620861111110000e+01 3.089000000000000e+03 
1.445537950000000e+09 3.806250000000000e+01 -7.620805555560000e+01 3.089000000000000e+03 
1.445537960000000e+09 3.806833333330000e+01 -7.620888888890001e+01 3.100000000000000e+03 
1.445537970000000e+09 3.807388888890000e+01 -7.620888888890001e+01 3.092000000000000e+03 
1.445537980000000e+09 3.807916666670000e+01 -7.621194444440000e+01 3.086000000000000e+03 
1.445537990000000e+09 3.808277777780000e+01 -7.621722222219999e+01 3.084000000000000e+03 
1.445538000000000e+09 3.808583333330000e+01 -7.622277777780000e+01 3.095000000000000e+03 
1.445538010000000e+09 3.808916666670000e+01 -7.622805555559999e+01 3.092000000000000e+03 
1.445538020000000e+09 3.809305555560000e+01 -7.623305555560000e+01 3.092000000000000e+03 
1.445538030000000e+09 3.809722222220000e+01 -7.623750000000000e+01 3.089000000000000e+03 
1.445538040000000e+09 3.810166666670000e+01 -7.624222222220000e+01 3.086000000000000e+03 
1.445538050000000e+09 3.810611111110000e+01 -7.624638888890000e+01 3.086000000000000e+03 
1.445538060000000e+09 3.811138888890000e+01 -7.624944444440000e+01 3.095000000000000e+03 
1.445538070000000e+09 3.811666666670000e+01 -7.625194444440000e+01 3.089000000000000e+03 
1.445538080000000e+09 3.812194444440000e+01 -7.625472222220000e+01 3.084000000000000e+03 
1.445538090000000e+09 3.812722222220000e+01 -7.625722222220000e+01 3.086000000000000e+03 
1.445538100000000e+09 3.813250000000000e+01 -7.625972222220000e+01 3.089000000000000e+03 
1.445538110000000e+09 3.813777777780000e+01 -7.626222222219999e+01 3.084000000000000e+03 
1.445538120000000e+09 3.814305555560000e+01 -7.626500000000000e+01 3.078000000000000e+03 
1.445538130000000e+09 3.814861111110000e+01 -7.626750000000000e+01 3.086000000000000e+03 
1.445538140000000e+09 3.815388888890000e+01 -7.626972222220000e+01 3.086000000000000e+03 
1.445538150000000e+09 3.815972222220000e+01 -7.627083333330000e+01 3.089000000000000e+03 
1.445538160000000e+09 3.816555555560000e+01 -7.627111111110000e+01 3.089000000000000e+03 
1.445538170000000e+09 3.817138888890000e+01 -7.627166666670000e+01 3.084000000000000e+03 
1.445538180000000e+09 3.817722222220000e+01 -7.627222222220000e+01 3.081000000000000e+03 
1.445538190000000e+09 3.818305555560000e+01 -7.627277777780000e+01 3.073000000000000e+03 
1.445538200000000e+09 3.818916666670000e+01 -7.627361111110000e+01 3.086000000000000e+03 
1.445538210000000e+09 3.819500000000000e+01 -7.627416666670000e+01 3.084000000000000e+03 
1.445538220000000e+09 3.820083333330000e+01 -7.627472222220000e+01 3.084000000000000e+03 
1.445538230000000e+09 3.820666666670000e+01 -7.627527777780000e+01 3.086000000000000e+03 
1.445538240000000e+09 3.821277777780000e+01 -7.627583333330000e+01 3.086000000000000e+03 
1.445538250000000e+09 3.821861111110000e+01 -7.627638888890000e+01 3.084000000000000e+03 
1.445538260000000e+09 3.822444444440000e+01 -7.627694444440000e+01 3.089000000000000e+03 
1.445538270000000e+09 3.823027777780000e+01 -7.627750000000000e+01 3.084000000000000e+03 
1.445538280000000e+09 3.823638888890000e+01 -7.627805555560001e+01 3.084000000000000e+03 
1.445538290000000e+09 3.824222222220000e+01 -7.627888888890000e+01 3.092000000000000e+03 
1.445538300000000e+09 3.824805555560000e+01 -7.627916666669999e+01 3.084000000000000e+03 
1.445538310000000e+09 3.825416666670000e+01 -7.627972222219999e+01 3.078000000000000e+03 
1.445538320000000e+09 3.825972222220000e+01 -7.628166666670000e+01 3.086000000000000e+03 
1.445538330000000e+09 3.826361111110000e+01 -7.628666666670000e+01 2.958000000000000e+03 
1.445538340000000e+09 3.826472222220000e+01 -7.629333333330000e+01 2.778000000000000e+03 
1.445538350000000e+09 3.826305555560000e+01 -7.629972222220000e+01 2.617000000000000e+03 
1.445538360000000e+09 3.825916666670000e+01 -7.630444444440000e+01 2.461000000000000e+03 
1.445538370000000e+09 3.825416666670000e+01 -7.630750000000000e+01 2.295000000000000e+03 
1.445538380000000e+09 3.824888888890000e+01 -7.630944444440000e+01 2.127000000000000e+03 
1.445538390000000e+09 3.824333333330000e+01 -7.631000000000000e+01 1.963000000000000e+03 
1.445538400000000e+09 3.823777777780000e+01 -7.631027777780000e+01 1.796000000000000e+03 
1.445538410000000e+09 3.823222222220000e+01 -7.631083333330000e+01 1.634000000000000e+03 
1.445538420000000e+09 3.822694444440000e+01 -7.631138888890000e+01 1.574000000000000e+03 
1.445538430000000e+09 3.822138888890000e+01 -7.631166666670001e+01 1.548000000000000e+03 
1.445538440000000e+09 3.821583333330000e+01 -7.631194444440000e+01 1.533000000000000e+03 
1.445538450000000e+09 3.821027777780000e+01 -7.631111111110000e+01 1.522000000000000e+03 
1.445538460000000e+09 3.820472222220000e+01 -7.631027777780000e+01 1.523000000000000e+03 
1.445538470000000e+09 3.819916666670000e+01 -7.630944444440000e+01 1.525000000000000e+03 
1.445538480000000e+09 3.819388888890000e+01 -7.630861111110001e+01 1.520000000000000e+03 
1.445538490000000e+09 3.818833333330000e+01 -7.630805555560001e+01 1.520000000000000e+03 
1.445538500000000e+09 3.818277777780000e+01 -7.630722222220000e+01 1.518000000000000e+03 
1.445538510000000e+09 3.817722222220000e+01 -7.630666666670000e+01 1.518000000000000e+03 
1.445538520000000e+09 3.817166666670000e+01 -7.630583333330000e+01 1.520000000000000e+03 
1.445538530000000e+09 3.816638888890000e+01 -7.630500000000001e+01 1.520000000000000e+03 
1.445538540000000e+09 3.816083333330000e+01 -7.630416666670000e+01 1.522000000000000e+03 
1.445538550000000e+09 3.815527777780000e+01 -7.630333333330000e+01 1.526000000000000e+03 
1.445538560000000e+09 3.815000000000000e+01 -7.630249999999999e+01 1.523000000000000e+03 
1.445538570000000e+09 3.814444444440000e+01 -7.630111111110000e+01 1.526000000000000e+03 
1.445538580000000e+09 3.813916666670000e+01 -7.630000000000000e+01 1.526000000000000e+03 
1.445538590000000e+09 3.813388888890000e+01 -7.629861111110000e+01 1.525000000000000e+03 
1.445538600000000e+09 3.812833333330000e+01 -7.629722222220001e+01 1.525000000000000e+03 
1.445538610000000e+09 3.812305555560000e+01 -7.629611111110000e+01 1.525000000000000e+03 
1.445538620000000e+09 3.811750000000000e+01 -7.629472222219999e+01 1.526000000000000e+03 
